{
  "type": "FeatureCollection",
  "features": [
    {
      "type": "Feature",
      "properties": {
        "norad_id": 67060,
        "name": "HULIANWANG DIGUI-120",
        "group": "last-30-days",
        "lat": -43.34038648675452,
        "lon": -98.54639442392347,
        "alt_km": 800.855146095003,
        "timestamp": "2025-12-26T13:39:17.668239+00:00",
        "meta_object_name": "HULIANWANG DIGUI-120",
        "meta_object_id": "2025-295B",
        "meta_epoch": "2025-12-23T18:39:46.505376",
        "meta_mean_motion": 14.25711377,
        "meta_eccentricity": 0.0013178,
        "meta_inclination": 50.0058,
        "meta_ra_of_asc_node": 325.6343,
        "meta_arg_of_pericenter": 286.4479,
        "meta_mean_anomaly": 73.4987,
        "meta_ephemeris_type": 0,
        "meta_classification_type": "U",
        "meta_norad_cat_id": 67060,
        "meta_element_set_no": 999,
        "meta_rev_at_epoch": 169,
        "meta_bstar": 6.7209387e-05,
        "meta_mean_motion_dot": 1e-08,
        "meta_mean_motion_ddot": 0,
        "tle_line1": "1 67060U 25295B   25357.77762159  .00000001  00000+0  67209-4 0  9996",
        "tle_line2": "2 67060  50.0058 325.6343 0013178 286.4479  73.4987 14.25711377  1697"
      },
      "geometry": {
        "type": "Point",
        "coordinates": [
          -98.54639442392347,
          -43.34038648675452
        ]
      }
    },
    {
      "type": "Feature",
      "properties": {
        "norad_id": 67061,
        "name": "HULIANWANG DIGUI-121",
        "group": "last-30-days",
        "lat": -48.16863829302542,
        "lon": -115.86012025657078,
        "alt_km": 803.3111899877622,
        "timestamp": "2025-12-26T13:39:17.668250+00:00",
        "meta_object_name": "HULIANWANG DIGUI-121",
        "meta_object_id": "2025-295C",
        "meta_epoch": "2025-12-23T10:16:36.437664",
        "meta_mean_motion": 14.25038967,
        "meta_eccentricity": 0.00134061,
        "meta_inclination": 50.0019,
        "meta_ra_of_asc_node": 327.1083,
        "meta_arg_of_pericenter": 283.4183,
        "meta_mean_anomaly": 76.5236,
        "meta_ephemeris_type": 0,
        "meta_classification_type": "U",
        "meta_norad_cat_id": 67061,
        "meta_element_set_no": 999,
        "meta_rev_at_epoch": 164,
        "meta_bstar": -3.3550159e-05,
        "meta_mean_motion_dot": -2.39e-06,
        "meta_mean_motion_ddot": 0,
        "tle_line1": "1 67061U 25295C   25357.42819951 -.00000239  00000+0 -33550-4 0  9999",
        "tle_line2": "2 67061  50.0019 327.1083 0013406 283.4183  76.5236 14.25038967  1649"
      },
      "geometry": {
        "type": "Point",
        "coordinates": [
          -115.86012025657078,
          -48.16863829302542
        ]
      }
    },
    {
      "type": "Feature",
      "properties": {
        "norad_id": 67062,
        "name": "HULIANWANG DIGUI-122",
        "group": "last-30-days",
        "lat": -42.15258774452453,
        "lon": -95.61894515463544,
        "alt_km": 800.6739261730781,
        "timestamp": "2025-12-26T13:39:17.668261+00:00",
        "meta_object_name": "HULIANWANG DIGUI-122",
        "meta_object_id": "2025-295D",
        "meta_epoch": "2025-12-24T16:31:18.472800",
        "meta_mean_motion": 14.25758016,
        "meta_eccentricity": 0.00131642,
        "meta_inclination": 50.0052,
        "meta_ra_of_asc_node": 321.783,
        "meta_arg_of_pericenter": 295.5417,
        "meta_mean_anomaly": 64.4135,
        "meta_ephemeris_type": 0,
        "meta_classification_type": "U",
        "meta_norad_cat_id": 67062,
        "meta_element_set_no": 999,
        "meta_rev_at_epoch": 182,
        "meta_bstar": 7.4037124e-05,
        "meta_mean_motion_dot": 1.7e-07,
        "meta_mean_motion_ddot": 0,
        "tle_line1": "1 67062U 25295D   25358.68840825  .00000017  00000+0  74037-4 0  9990",
        "tle_line2": "2 67062  50.0052 321.7830 0013164 295.5417  64.4135 14.25758016  1820"
      },
      "geometry": {
        "type": "Point",
        "coordinates": [
          -95.61894515463544,
          -42.15258774452453
        ]
      }
    },
    {
      "type": "Feature",
      "properties": {
        "norad_id": 67063,
        "name": "HULIANWANG DIGUI-123",
        "group": "last-30-days",
        "lat": -38.41090298197132,
        "lon": -87.90141112443631,
        "alt_km": 800.5632952029218,
        "timestamp": "2025-12-26T13:39:17.668271+00:00",
        "meta_object_name": "HULIANWANG DIGUI-123",
        "meta_object_id": "2025-295E",
        "meta_epoch": "2025-12-23T18:37:38.191872",
        "meta_mean_motion": 14.25890271,
        "meta_eccentricity": 0.00124733,
        "meta_inclination": 50.0059,
        "meta_ra_of_asc_node": 325.6275,
        "meta_arg_of_pericenter": 291.5304,
        "meta_mean_anomaly": 68.428,
        "meta_ephemeris_type": 0,
        "meta_classification_type": "U",
        "meta_norad_cat_id": 67063,
        "meta_element_set_no": 999,
        "meta_rev_at_epoch": 169,
        "meta_bstar": 6.4661609e-05,
        "meta_mean_motion_dot": -5e-08,
        "meta_mean_motion_ddot": 0,
        "tle_line1": "1 67063U 25295E   25357.77613648 -.00000005  00000+0  64662-4 0  9992",
        "tle_line2": "2 67063  50.0059 325.6275 0012473 291.5304  68.4280 14.25890271  1697"
      },
      "geometry": {
        "type": "Point",
        "coordinates": [
          -87.90141112443631,
          -38.41090298197132
        ]
      }
    },
    {
      "type": "Feature",
      "properties": {
        "norad_id": 67064,
        "name": "HULIANWANG DIGUI-124",
        "group": "last-30-days",
        "lat": -36.57740883090777,
        "lon": -84.72916714082547,
        "alt_km": 800.7298478414596,
        "timestamp": "2025-12-26T13:39:17.668280+00:00",
        "meta_object_name": "HULIANWANG DIGUI-124",
        "meta_object_id": "2025-295F",
        "meta_epoch": "2025-12-22T05:36:45.096192",
        "meta_mean_motion": 14.25948838,
        "meta_eccentricity": 0.00121422,
        "meta_inclination": 50.0035,
        "meta_ra_of_asc_node": 332.1235,
        "meta_arg_of_pericenter": 280.5756,
        "meta_mean_anomaly": 79.379,
        "meta_ephemeris_type": 0,
        "meta_classification_type": "U",
        "meta_norad_cat_id": 67064,
        "meta_element_set_no": 999,
        "meta_rev_at_epoch": 147,
        "meta_bstar": -0.00021789546,
        "meta_mean_motion_dot": -6.84e-06,
        "meta_mean_motion_ddot": 0,
        "tle_line1": "1 67064U 25295F   25356.23385528 -.00000684  00000+0 -21790-3 0  9994",
        "tle_line2": "2 67064  50.0035 332.1235 0012142 280.5756  79.3790 14.25948838  1479"
      },
      "geometry": {
        "type": "Point",
        "coordinates": [
          -84.72916714082547,
          -36.57740883090777
        ]
      }
    },
    {
      "type": "Feature",
      "properties": {
        "norad_id": 67065,
        "name": "HULIANWANG DIGUI-125",
        "group": "last-30-days",
        "lat": -36.38493787763895,
        "lon": -84.4155620353593,
        "alt_km": 800.4291492744978,
        "timestamp": "2025-12-26T13:39:17.668290+00:00",
        "meta_object_name": "HULIANWANG DIGUI-125",
        "meta_object_id": "2025-295G",
        "meta_epoch": "2025-12-24T03:01:26.356800",
        "meta_mean_motion": 14.25956035,
        "meta_eccentricity": 0.00122653,
        "meta_inclination": 50.0009,
        "meta_ra_of_asc_node": 324.1276,
        "meta_arg_of_pericenter": 293.4537,
        "meta_mean_anomaly": 66.5087,
        "meta_ephemeris_type": 0,
        "meta_classification_type": "U",
        "meta_norad_cat_id": 67065,
        "meta_element_set_no": 999,
        "meta_rev_at_epoch": 174,
        "meta_bstar": 6.5028559e-05,
        "meta_mean_motion_dot": -4e-08,
        "meta_mean_motion_ddot": 0,
        "tle_line1": "1 67065U 25295G   25358.12599950 -.00000004  00000+0  65029-4 0  9990",
        "tle_line2": "2 67065  50.0009 324.1276 0012265 293.4537  66.5087 14.25956035  1748"
      },
      "geometry": {
        "type": "Point",
        "coordinates": [
          -84.4155620353593,
          -36.38493787763895
        ]
      }
    },
    {
      "type": "Feature",
      "properties": {
        "norad_id": 67066,
        "name": "HULIANWANG DIGUI-126",
        "group": "last-30-days",
        "lat": -31.58458285781991,
        "lon": -77.28912778958782,
        "alt_km": 800.5853871536538,
        "timestamp": "2025-12-26T13:39:17.668303+00:00",
        "meta_object_name": "HULIANWANG DIGUI-126",
        "meta_object_id": "2025-295H",
        "meta_epoch": "2025-12-24T16:26:54.676320",
        "meta_mean_motion": 14.26099416,
        "meta_eccentricity": 0.00114214,
        "meta_inclination": 50.0012,
        "meta_ra_of_asc_node": 321.7514,
        "meta_arg_of_pericenter": 292.7089,
        "meta_mean_anomaly": 67.2617,
        "meta_ephemeris_type": 0,
        "meta_classification_type": "U",
        "meta_norad_cat_id": 67066,
        "meta_element_set_no": 999,
        "meta_rev_at_epoch": 182,
        "meta_bstar": 8.0653336e-05,
        "meta_mean_motion_dot": 3.4e-07,
        "meta_mean_motion_ddot": 0,
        "tle_line1": "1 67066U 25295H   25358.68535505  .00000034  00000+0  80653-4 0  9990",
        "tle_line2": "2 67066  50.0012 321.7514 0011421 292.7089  67.2617 14.26099416  1826"
      },
      "geometry": {
        "type": "Point",
        "coordinates": [
          -77.28912778958782,
          -31.58458285781991
        ]
      }
    }
  ]
}